STARLINK-35270          
1 65882U 25224A   25309.66670139 -.00035430  00000+0 -63180-3 0  9998
2 65882  53.1601 228.7432 0001089  88.9375  41.6436 15.49311305  5891
STARLINK-35367          
1 65883U 25224B   25310.22321063  .00084847  00000+0  15154-2 0  9993
2 65883  53.1595 226.0759 0001223 101.8228 258.2918 15.49341589  5909
STARLINK-35384          
1 65884U 25224C   25310.09350823  .00048588  00000+0  87500-3 0  9992
2 65884  53.1597 226.6864 0001576  64.2266 295.8906 15.49349351  5886
STARLINK-35415          
1 65885U 25224D   25310.09282433  .00081464  00000+0  14565-2 0  9994
2 65885  53.1600 226.6844 0001984  49.7084 310.4098 15.49328163  5838
STARLINK-35413          
1 65886U 25224E   25310.22115194  .00099700  00000+0  17760-2 0  9991
2 65886  53.1596 226.0602 0001761 101.3165 258.8042 15.49338786  5855
STARLINK-35332          
1 65887U 25224F   25310.09179354  .00091042  00000+0  16258-2 0  9997
2 65887  53.1606 226.6750 0002301  57.2482 302.8748 15.49311225  5919
STARLINK-35362          
1 65888U 25224G   25310.28805884  .00208866  00000+0  34475-2 0  9998
2 65888  53.1617 225.7704 0006267 227.4768 132.5713 15.51019627  5918
STARLINK-35193          
1 65889U 25224H   25310.07131692  .00102456  00000+0  18247-2 0  9992
2 65889  53.1602 226.5363 0001646  52.1055 308.0103 15.49331537  5918
STARLINK-34542          
1 65890U 25224J   25309.51328063  .00079869  00000+0  14274-2 0  9998
2 65890  53.1604 229.4648 0001372  89.7892 270.3274 15.49350496  5848
STARLINK-34791          
1 65891U 25224K   25310.07200091  .00115157  00000+0  20451-2 0  9997
2 65891  53.1613 226.5404 0001351  92.7702 267.3462 15.49352273  5938
STARLINK-34853          
1 65892U 25224L   25310.09316608  .00108691  00000+0  19336-2 0  9997
2 65892  53.1593 226.6843 0001423  61.0460 299.0692 15.49333772  5866
STARLINK-34921          
1 65893U 25224M   25310.07097063  .00087484  00000+0  15612-2 0  9996
2 65893  53.1611 226.5344 0001510 100.5662 259.5517 15.49349161  5937
