CCSDS_OMM_VERS = 2.0
CREATION_DATE  = 
ORIGINATOR     = 

OBJECT_NAME    = STARLINK-35270
OBJECT_ID      = 2025-224A
CENTER_NAME    = EARTH
REF_FRAME      = TEME
TIME_SYSTEM    = UTC
MEAN_ELEMENT_THEORY = SGP/SGP4

EPOCH          = 2025-11-05T16:00:03.000096
MEAN_MOTION    = 15.49311305
ECCENTRICITY   = .00010894
INCLINATION    = 53.1601
RA_OF_ASC_NODE = 228.7432
ARG_OF_PERICENTER = 88.9375
MEAN_ANOMALY   = 41.6436

EPHEMERIS_TYPE = 0
CLASSIFICATION_TYPE = U
NORAD_CAT_ID   = 65882
ELEMENT_SET_NO = 999
REV_AT_EPOCH   = 589
BSTAR          = -.6317965E-3
MEAN_MOTION_DOT = -.3543E-3
MEAN_MOTION_DDOT = 0

CCSDS_OMM_VERS = 2.0
CREATION_DATE  = 
ORIGINATOR     = 

OBJECT_NAME    = STARLINK-35367
OBJECT_ID      = 2025-224B
CENTER_NAME    = EARTH
REF_FRAME      = TEME
TIME_SYSTEM    = UTC
MEAN_ELEMENT_THEORY = SGP/SGP4

EPOCH          = 2025-11-06T05:21:25.398432
MEAN_MOTION    = 15.49341589
ECCENTRICITY   = .00012237
INCLINATION    = 53.1595
RA_OF_ASC_NODE = 226.0759
ARG_OF_PERICENTER = 101.8228
MEAN_ANOMALY   = 258.2918

EPHEMERIS_TYPE = 0
CLASSIFICATION_TYPE = U
NORAD_CAT_ID   = 65883
ELEMENT_SET_NO = 999
REV_AT_EPOCH   = 590
BSTAR          = .1515351E-2
MEAN_MOTION_DOT = .84847E-3
MEAN_MOTION_DDOT = 0

CCSDS_OMM_VERS = 2.0
CREATION_DATE  = 
ORIGINATOR     = 

OBJECT_NAME    = STARLINK-35384
OBJECT_ID      = 2025-224C
CENTER_NAME    = EARTH
REF_FRAME      = TEME
TIME_SYSTEM    = UTC
MEAN_ELEMENT_THEORY = SGP/SGP4

EPOCH          = 2025-11-06T02:14:39.111072
MEAN_MOTION    = 15.49349351
ECCENTRICITY   = .0001576
INCLINATION    = 53.1597
RA_OF_ASC_NODE = 226.6864
ARG_OF_PERICENTER = 64.2266
MEAN_ANOMALY   = 295.8906

EPHEMERIS_TYPE = 0
CLASSIFICATION_TYPE = U
NORAD_CAT_ID   = 65884
ELEMENT_SET_NO = 999
REV_AT_EPOCH   = 588
BSTAR          = .87499853E-3
MEAN_MOTION_DOT = .48588E-3
MEAN_MOTION_DDOT = 0

CCSDS_OMM_VERS = 2.0
CREATION_DATE  = 
ORIGINATOR     = 

OBJECT_NAME    = STARLINK-35415
OBJECT_ID      = 2025-224D
CENTER_NAME    = EARTH
REF_FRAME      = TEME
TIME_SYSTEM    = UTC
MEAN_ELEMENT_THEORY = SGP/SGP4

EPOCH          = 2025-11-06T02:13:40.022112
MEAN_MOTION    = 15.49328163
ECCENTRICITY   = .00019847
INCLINATION    = 53.1600
RA_OF_ASC_NODE = 226.6844
ARG_OF_PERICENTER = 49.7084
MEAN_ANOMALY   = 310.4098

EPHEMERIS_TYPE = 0
CLASSIFICATION_TYPE = U
NORAD_CAT_ID   = 65885
ELEMENT_SET_NO = 999
REV_AT_EPOCH   = 583
BSTAR          = .14565287E-2
MEAN_MOTION_DOT = .81464E-3
MEAN_MOTION_DDOT = 0

CCSDS_OMM_VERS = 2.0
CREATION_DATE  = 
ORIGINATOR     = 

OBJECT_NAME    = STARLINK-35413
OBJECT_ID      = 2025-224E
CENTER_NAME    = EARTH
REF_FRAME      = TEME
TIME_SYSTEM    = UTC
MEAN_ELEMENT_THEORY = SGP/SGP4

EPOCH          = 2025-11-06T05:18:27.527616
MEAN_MOTION    = 15.49338786
ECCENTRICITY   = .00017611
INCLINATION    = 53.1596
RA_OF_ASC_NODE = 226.0602
ARG_OF_PERICENTER = 101.3165
MEAN_ANOMALY   = 258.8042

EPHEMERIS_TYPE = 0
CLASSIFICATION_TYPE = U
NORAD_CAT_ID   = 65886
ELEMENT_SET_NO = 999
REV_AT_EPOCH   = 585
BSTAR          = .17759935E-2
MEAN_MOTION_DOT = .997E-3
MEAN_MOTION_DDOT = 0

CCSDS_OMM_VERS = 2.0
CREATION_DATE  = 
ORIGINATOR     = 

OBJECT_NAME    = STARLINK-35332
OBJECT_ID      = 2025-224F
CENTER_NAME    = EARTH
REF_FRAME      = TEME
TIME_SYSTEM    = UTC
MEAN_ELEMENT_THEORY = SGP/SGP4

EPOCH          = 2025-11-06T02:12:10.961856
MEAN_MOTION    = 15.49311225
ECCENTRICITY   = .00023017
INCLINATION    = 53.1606
RA_OF_ASC_NODE = 226.6750
ARG_OF_PERICENTER = 57.2482
MEAN_ANOMALY   = 302.8748

EPHEMERIS_TYPE = 0
CLASSIFICATION_TYPE = U
NORAD_CAT_ID   = 65887
ELEMENT_SET_NO = 999
REV_AT_EPOCH   = 591
BSTAR          = .16257877E-2
MEAN_MOTION_DOT = .91042E-3
MEAN_MOTION_DDOT = 0

CCSDS_OMM_VERS = 2.0
CREATION_DATE  = 
ORIGINATOR     = 

OBJECT_NAME    = STARLINK-35362
OBJECT_ID      = 2025-224G
CENTER_NAME    = EARTH
REF_FRAME      = TEME
TIME_SYSTEM    = UTC
MEAN_ELEMENT_THEORY = SGP/SGP4

EPOCH          = 2025-11-06T06:54:48.283776
MEAN_MOTION    = 15.51019627
ECCENTRICITY   = .00062675
INCLINATION    = 53.1617
RA_OF_ASC_NODE = 225.7704
ARG_OF_PERICENTER = 227.4768
MEAN_ANOMALY   = 132.5713

EPHEMERIS_TYPE = 0
CLASSIFICATION_TYPE = U
NORAD_CAT_ID   = 65888
ELEMENT_SET_NO = 999
REV_AT_EPOCH   = 591
BSTAR          = .34474504E-2
MEAN_MOTION_DOT = .208866E-2
MEAN_MOTION_DDOT = 0

CCSDS_OMM_VERS = 2.0
CREATION_DATE  = 
ORIGINATOR     = 

OBJECT_NAME    = STARLINK-35193
OBJECT_ID      = 2025-224H
CENTER_NAME    = EARTH
REF_FRAME      = TEME
TIME_SYSTEM    = UTC
MEAN_ELEMENT_THEORY = SGP/SGP4

EPOCH          = 2025-11-06T01:42:41.781888
MEAN_MOTION    = 15.49331537
ECCENTRICITY   = .00016465
INCLINATION    = 53.1602
RA_OF_ASC_NODE = 226.5363
ARG_OF_PERICENTER = 52.1055
MEAN_ANOMALY   = 308.0103

EPHEMERIS_TYPE = 0
CLASSIFICATION_TYPE = U
NORAD_CAT_ID   = 65889
ELEMENT_SET_NO = 999
REV_AT_EPOCH   = 591
BSTAR          = .18246887E-2
MEAN_MOTION_DOT = .102456E-2
MEAN_MOTION_DDOT = 0

CCSDS_OMM_VERS = 2.0
CREATION_DATE  = 
ORIGINATOR     = 

OBJECT_NAME    = STARLINK-34542
OBJECT_ID      = 2025-224J
CENTER_NAME    = EARTH
REF_FRAME      = TEME
TIME_SYSTEM    = UTC
MEAN_ELEMENT_THEORY = SGP/SGP4

EPOCH          = 2025-11-05T12:19:07.446432
MEAN_MOTION    = 15.49350496
ECCENTRICITY   = .00013723
INCLINATION    = 53.1604
RA_OF_ASC_NODE = 229.4648
ARG_OF_PERICENTER = 89.7892
MEAN_ANOMALY   = 270.3274

EPHEMERIS_TYPE = 0
CLASSIFICATION_TYPE = U
NORAD_CAT_ID   = 65890
ELEMENT_SET_NO = 999
REV_AT_EPOCH   = 584
BSTAR          = .14273633E-2
MEAN_MOTION_DOT = .79869E-3
MEAN_MOTION_DDOT = 0

CCSDS_OMM_VERS = 2.0
CREATION_DATE  = 
ORIGINATOR     = 

OBJECT_NAME    = STARLINK-34791
OBJECT_ID      = 2025-224K
CENTER_NAME    = EARTH
REF_FRAME      = TEME
TIME_SYSTEM    = UTC
MEAN_ELEMENT_THEORY = SGP/SGP4

EPOCH          = 2025-11-06T01:43:40.878624
MEAN_MOTION    = 15.49352273
ECCENTRICITY   = .00013511
INCLINATION    = 53.1613
RA_OF_ASC_NODE = 226.5404
ARG_OF_PERICENTER = 92.7702
MEAN_ANOMALY   = 267.3462

EPHEMERIS_TYPE = 0
CLASSIFICATION_TYPE = U
NORAD_CAT_ID   = 65891
ELEMENT_SET_NO = 999
REV_AT_EPOCH   = 593
BSTAR          = .20450889E-2
MEAN_MOTION_DOT = .115157E-2
MEAN_MOTION_DDOT = 0

CCSDS_OMM_VERS = 2.0
CREATION_DATE  = 
ORIGINATOR     = 

OBJECT_NAME    = STARLINK-34853
OBJECT_ID      = 2025-224L
CENTER_NAME    = EARTH
REF_FRAME      = TEME
TIME_SYSTEM    = UTC
MEAN_ELEMENT_THEORY = SGP/SGP4

EPOCH          = 2025-11-06T02:14:09.549312
MEAN_MOTION    = 15.49333772
ECCENTRICITY   = .00014234
INCLINATION    = 53.1593
RA_OF_ASC_NODE = 226.6843
ARG_OF_PERICENTER = 61.0460
MEAN_ANOMALY   = 299.0692

EPHEMERIS_TYPE = 0
CLASSIFICATION_TYPE = U
NORAD_CAT_ID   = 65892
ELEMENT_SET_NO = 999
REV_AT_EPOCH   = 586
BSTAR          = .19335594E-2
MEAN_MOTION_DOT = .108691E-2
MEAN_MOTION_DDOT = 0

CCSDS_OMM_VERS = 2.0
CREATION_DATE  = 
ORIGINATOR     = 

OBJECT_NAME    = STARLINK-34921
OBJECT_ID      = 2025-224M
CENTER_NAME    = EARTH
REF_FRAME      = TEME
TIME_SYSTEM    = UTC
MEAN_ELEMENT_THEORY = SGP/SGP4

EPOCH          = 2025-11-06T01:42:11.862432
MEAN_MOTION    = 15.49349161
ECCENTRICITY   = .00015103
INCLINATION    = 53.1611
RA_OF_ASC_NODE = 226.5344
ARG_OF_PERICENTER = 100.5662
MEAN_ANOMALY   = 259.5517

EPHEMERIS_TYPE = 0
CLASSIFICATION_TYPE = U
NORAD_CAT_ID   = 65893
ELEMENT_SET_NO = 999
REV_AT_EPOCH   = 593
BSTAR          = .15612418E-2
MEAN_MOTION_DOT = .87484E-3
MEAN_MOTION_DDOT = 0

